NORAD_CAT_ID,OBJECT_NAME,OBJECT_TYPE,EPOCH,MEAN_MOTION,ECCENTRICITY,INCLINATION,RA_OF_ASC_NODE,ARG_OF_PERICENTER,MEAN_ANOMALY,BSTAR,MEAN_MOTION_DOT,MEAN_MOTION_DDOT,TLE_LINE0,TLE_LINE1,TLE_LINE2,SEMIMAJOR_AXIS,PERIOD,APOGEE,PERIGEE,DECAYED
55287.0,STARLINK-5341,PAYLOAD,2024-01-08 12:10:11,14.98333274,0.00025,69.9995,199.5026,269.9507,90.1365,4.2791e-05,4.18e-06,0.0,0 STARLINK-5341,1 55287U 23010U   24008.50707560  .00000418  00000-0  42791-4 0  9997,2 55287  69.9995 199.5026 0002500 269.9507  90.1365 14.98333274 54932,6950.183,96.107,573.785,570.31,0.0
55287.0,STARLINK-5341,PAYLOAD,2024-01-08 13:46:19,14.98334144,0.0002473,69.9995,199.3346,267.9749,92.1127,5.4688e-05,5.6e-06,0.0,0 STARLINK-5341,1 55287U 23010U   24008.57383455  .00000560  00000-0  54688-4 0  9993,2 55287  69.9995 199.3346 0002473 267.9749  92.1127 14.98334144 55251,6950.18,96.107,573.764,570.326,0.0
55287.0,STARLINK-5341,PAYLOAD,2024-01-08 21:46:59,14.98332969,0.0002519,69.9995,198.493,268.1486,91.9384,3.5235e-05,3.28e-06,0.0,0 STARLINK-5341,1 55287U 23010U   24008.90763510  .00000328  00000-0  35235-4 0  9993,2 55287  69.9995 198.4930 0002519 268.1486  91.9384 14.98332969 55303,6950.184,96.107,573.799,570.298,0.0
55287.0,STARLINK-5341,PAYLOAD,2024-01-09 12:12:12,14.98330904,0.0002479,69.9997,196.9786,266.6955,93.392,2.9915e-05,2.64e-06,0.0,0 STARLINK-5341,1 55287U 23010U   24009.50847587  .00000264  00000-0  29915-4 0  9994,2 55287  69.9997 196.9786 0002479 266.6955  93.3920 14.98330904 55080,6950.19,96.107,573.778,570.332,0.0
55287.0,STARLINK-5341,PAYLOAD,2024-01-09 13:48:20,14.98330678,0.0002496,69.9996,196.8102,266.8473,93.2401,2.5878e-05,2.16e-06,0.0,0 STARLINK-5341,1 55287U 23010U   24009.57523621  .00000216  00000-0  25878-4 0  9992,2 55287  69.9996 196.8102 0002496 266.8473  93.2401 14.98330678 55403,6950.191,96.107,573.791,570.321,0.0
55287.0,STARLINK-5341,PAYLOAD,2024-01-09 21:49:00,14.98330602,0.0002611,69.9993,195.968,271.6331,88.4529,1.6501e-05,1.04e-06,0.0,0 STARLINK-5341,1 55287U 23010U   24009.90903646  .00000104  00000-0  16501-4 0  9997,2 55287  69.9993 195.9680 0002611 271.6331  88.4529 14.98330602 55456,6950.191,96.107,573.871,570.241,0.0
55287.0,STARLINK-5341,PAYLOAD,2024-01-10 18:38:45,14.98332511,0.0002662,69.9994,193.7796,271.1811,88.9043,2.7946e-05,2.41e-06,0.0,0 STARLINK-5341,1 55287U 23010U   24010.77691441  .00000241  00000-0  27946-4 0  9998,2 55287  69.9994 193.7796 0002662 271.1811  88.9043 14.98332511 55272,6950.185,96.107,573.9,570.2,0.0
55287.0,STARLINK-5341,PAYLOAD,2024-01-11 13:52:22,14.98329897,0.0002642,69.9996,191.7595,271.4505,88.6351,5.1375e-05,5.2e-06,0.0,0 STARLINK-5341,1 55287U 23010U   24011.57803536  .00000520  00000-0  51375-4 0  9990,2 55287  69.9996 191.7595 0002642 271.4505  88.6351 14.98329897 55700,6950.193,96.107,573.894,570.222,0.0
55287.0,STARLINK-5341,PAYLOAD,2024-01-11 20:16:54,14.98331083,0.0002637,69.9997,191.0864,271.9275,88.1582,6.1776e-05,6.44e-06,0.0,0 STARLINK-5341,1 55287U 23010U   24011.84507442  .00000644  00000-0  61776-4 0  9990,2 55287  69.9997 191.0864 0002637 271.9275  88.1582 14.98331083 55437,6950.19,96.107,573.887,570.222,0.0
55287.0,STARLINK-5341,PAYLOAD,2024-01-11 21:53:02,14.98331837,0.0002634,69.9997,190.9183,271.7549,88.3308,6.9438e-05,7.36e-06,0.0,0 STARLINK-5341,1 55287U 23010U   24011.91183375  .00000736  00000-0  69438-4 0  9998,2 55287  69.9997 190.9183 0002634 271.7549  88.3308 14.98331837 55758,6950.187,96.107,573.883,570.222,0.0
55287.0,STARLINK-5341,PAYLOAD,2024-01-12 13:54:23,14.98329838,0.0002473,70.0002,189.2356,266.7333,93.3543,2.7262e-05,2.32e-06,0.0,0 STARLINK-5341,1 55287U 23010U   24012.57943630  .00000232  00000-0  27262-4 0  9999,2 55287  70.0002 189.2356 0002473 266.7333  93.3543 14.98329838 55853,6950.193,96.107,573.777,570.34,0.0
55287.0,STARLINK-5341,PAYLOAD,2024-01-12 21:55:03,14.98328133,0.0002531,70.0003,188.3944,268.0099,92.077,6.0154e-07,-8.6e-07,0.0,0 STARLINK-5341,1 55287U 23010U   24012.91323831 -.00000086  00000-0  60154-6 0  9999,2 55287  70.0003 188.3944 0002531 268.0099  92.0770 14.98328133 55907,6950.199,96.107,573.823,570.305,0.0
55287.0,STARLINK-5341,PAYLOAD,2024-01-13 12:20:15,14.98334445,0.0002708,69.9999,186.8795,272.3718,87.713,6.949e-05,7.36e-06,0.0,0 STARLINK-5341,1 55287U 23010U   24013.51407251  .00000736  00000-0  69490-4 0  9996,2 55287  69.9999 186.8795 0002708 272.3718  87.7130 14.98334445 55686,6950.179,96.107,573.926,570.162,0.0
55287.0,STARLINK-5341,PAYLOAD,2024-01-13 13:56:23,14.98334834,0.0002707,69.9999,186.7111,271.85,88.2349,7.4552e-05,7.97e-06,0.0,0 STARLINK-5341,1 55287U 23010U   24013.58083224  .00000797  00000-0  74552-4 0  9995,2 55287  69.9999 186.7111 0002707 271.8500  88.2349 14.98334834 56006,6950.178,96.107,573.924,570.162,0.0
55287.0,STARLINK-5341,PAYLOAD,2024-01-14 12:22:18,14.98318274,0.0002497,70.0006,184.3552,269.7848,90.3025,-2.3949e-05,-3.79e-06,0.0,0 STARLINK-5341,1 55287U 23010U   24014.51548642 -.00000379  00000-0 -23949-4 0  9991,2 55287  70.0006 184.3552 0002497 269.7848  90.3025 14.98318274 55833,6950.229,96.108,573.83,570.359,0.0
55287.0,STARLINK-5341,PAYLOAD,2024-01-14 13:58:26,14.98316606,0.0002536,70.0004,184.1869,267.9676,92.1193,-4.4728e-05,-6.26e-06,0.0,0 STARLINK-5341,1 55287U 23010U   24014.58224841 -.00000626  00000-0 -44728-4 0  9993,2 55287  70.0004 184.1869 0002536 267.9676  92.1193 14.98316606 56152,6950.234,96.108,573.862,570.337,0.0
55287.0,STARLINK-5341,PAYLOAD,2024-01-14 20:22:58,14.98315686,0.0002581,70.0005,183.5138,270.2113,89.875,-5.8582e-05,-7.92e-06,0.0,0 STARLINK-5341,1 55287U 23010U   24014.84929149 -.00000792  00000-0 -58582-4 0  9992,2 55287  70.0005 183.5138 0002581 270.2113  89.8750 14.98315686 56191,6950.237,96.108,573.896,570.308,0.0
55287.0,STARLINK-5341,PAYLOAD,2024-01-15 12:24:19,14.98323956,0.0003059,69.9997,181.8303,275.7826,84.2984,-4.7281e-05,-6.57e-06,0.0,0 STARLINK-5341,1 55287U 23010U   24015.51688978 -.00000657  00000-0 -47281-4 0  9993,2 55287  69.9997 181.8303 0003059 275.7826  84.2984 14.98323956 55988,6950.212,96.107,574.203,569.951,0.0
55287.0,STARLINK-5341,PAYLOAD,2024-01-15 14:00:27,14.98326055,0.0002563,70.0007,181.6629,267.4158,92.6708,-3.1106e-05,-4.64e-06,0.0,0 STARLINK-5341,1 55287U 23010U   24015.58364800 -.00000464  00000-0 -31106-4 0  9990,2 55287  70.0007 181.6629 0002563 267.4158  92.6708 14.98326055 56304,6950.205,96.107,573.851,570.289,0.0
55287.0,STARLINK-5341,PAYLOAD,2024-01-15 20:24:59,14.98327709,0.0002515,70.0008,180.9899,267.2282,92.8589,-3.344e-06,-1.33e-06,0.0,0 STARLINK-5341,1 55287U 23010U   24015.85068702 -.00000133  00000-0 -33440-5 0  9999,2 55287  70.0008 180.9899 0002515 267.2282  92.8589 14.98327709 56349,6950.2,96.107,573.813,570.317,0.0
55287.0,STARLINK-5341,PAYLOAD,2024-01-16 12:26:19,14.98329608,0.0002881,70.0,179.3065,274.4933,85.5897,0.00023127,2.667e-05,0.0,0 STARLINK-5341,1 55287U 23010U   24016.51828154  .00002667  00000-0  23127-3 0  9999,2 55287  70.0000 179.3065 0002881 274.4933  85.5897 14.98329608 56135,6950.194,96.107,574.061,570.057,0.0
55287.0,STARLINK-5341,PAYLOAD,2024-01-16 14:02:27,14.98330782,0.0002855,70.0001,179.1382,274.4794,85.6039,0.00024634,2.848e-05,0.0,0 STARLINK-5341,1 55287U 23010U   24016.58504071  .00002848  00000-0  24634-3 0  9990,2 55287  70.0001 179.1382 0002855 274.4794  85.6039 14.98330782 56451,6950.19,96.107,574.04,570.071,0.0
55287.0,STARLINK-5341,PAYLOAD,2024-01-16 20:26:59,14.98336497,0.0002764,70.0003,178.4651,272.2117,87.8726,0.00031478,3.665e-05,0.0,0 STARLINK-5341,1 55287U 23010U   24016.85207680  .00003665  00000-0  31478-3 0  9998,2 55287  70.0003 178.4651 0002764 272.2117  87.8726 14.98336497 56498,6950.173,96.107,573.959,570.117,0.0
55287.0,STARLINK-5341,PAYLOAD,2024-01-17 14:04:28,14.98337272,0.00026,70.0006,176.6142,268.2667,91.8194,0.0001652,1.879e-05,0.0,0 STARLINK-5341,1 55287U 23010U   24017.58643862  .00001879  00000-0  16520-3 0  9991,2 55287  70.0006 176.6142 0002600 268.2667  91.8194 14.98337272 56609,6950.17,96.107,573.842,570.228,0.0
55287.0,STARLINK-5341,PAYLOAD,2024-01-17 18:52:52,14.98338823,0.0002581,70.0007,176.1093,267.7037,92.3826,0.00018274,2.089e-05,0.0,0 STARLINK-5341,1 55287U 23010U   24017.78671715  .00002089  00000-0  18274-3 0  9993,2 55287  70.0007 176.1093 0002581 267.7037  92.3826 14.98338823 56323,6950.166,96.106,573.824,570.237,0.0
55287.0,STARLINK-5341,PAYLOAD,2024-01-17 20:29:00,14.98339389,0.0002576,70.0007,175.941,267.621,92.4654,0.00018822,2.154e-05,0.0,0 STARLINK-5341,1 55287U 23010U   24017.85347644  .00002154  00000-0  18822-3 0  9994,2 55287  70.0007 175.9410 0002576 267.6210  92.4654 14.98339389 56642,6950.164,96.106,573.819,570.238,0.0
55287.0,STARLINK-5341,PAYLOAD,2024-01-18 14:06:28,14.98340353,0.0002332,70.0014,174.0881,266.888,93.2012,2.2767e-05,1.79e-06,0.0,0 STARLINK-5341,1 55287U 23010U   24018.58783424  .00000179  00000-0  22767-4 0  9994,2 55287  70.0014 174.0881 0002332 266.8880  93.2012 14.98340353 56758,6950.161,96.106,573.647,570.405,0.0
55287.0,STARLINK-5341,PAYLOAD,2024-01-18 18:54:53,14.9833786,0.0002468,70.0012,173.5836,268.4222,91.6654,-2.3298e-05,-3.71e-06,0.0,0 STARLINK-5341,1 55287U 23010U   24018.78811536 -.00000371  00000-0 -23298-4 0  9998,2 55287  70.0012 173.5836 0002468 268.4222  91.6654 14.98337860 56470,6950.169,96.106,573.749,570.318,0.0
55287.0,STARLINK-5341,PAYLOAD,2024-01-18 20:31:01,14.98338296,0.0002475,70.0012,173.4153,268.6237,91.4639,-2.1929e-05,-3.55e-06,0.0,0 STARLINK-5341,1 55287U 23010U   24018.85487444 -.00000355  00000-0 -21929-4 0  9994,2 55287  70.0012 173.4153 0002475 268.6237  91.4639 14.98338296 56797,6950.167,96.106,573.752,570.312,0.0
55287.0,STARLINK-5341,PAYLOAD,2024-01-19 14:08:29,14.98337173,0.0002635,70.0009,171.5638,267.846,92.2397,6.6561e-06,-1.4e-07,0.0,0 STARLINK-5341,1 55287U 23010U   24019.58923009 -.00000014  00000-0  66561-5 0  9990,2 55287  70.0009 171.5638 0002635 267.8460  92.2397 14.98337173 56903,6950.171,96.107,573.867,570.204,0.0
